NORAD_CAT_ID,OBJECT_NAME,OBJECT_TYPE,EPOCH,MEAN_MOTION,ECCENTRICITY,INCLINATION,RA_OF_ASC_NODE,ARG_OF_PERICENTER,MEAN_ANOMALY,BSTAR,MEAN_MOTION_DOT,MEAN_MOTION_DDOT,TLE_LINE0,TLE_LINE1,TLE_LINE2,SEMIMAJOR_AXIS,PERIOD,APOGEE,PERIGEE,DECAYED
53918.0,STARLINK-5012,PAYLOAD,2023-11-02 22:19:23,15.088457,0.0001539,53.2162,204.6574,86.0588,274.058,0.00052235,8.036e-05,0.0,0 STARLINK-5012,1 53918U 22119AJ  23306.93013042  .00008036  00000-0  52235-3 0  9994,2 53918  53.2162 204.6574 0001539  86.0588 274.0580 15.08845700 62336,6917.863,95.437,540.793,538.663,0.0
53918.0,STARLINK-5012,PAYLOAD,2023-11-03 03:05:32,15.08853452,0.0001607,53.2167,203.7646,86.5941,273.5235,0.00061926,9.585e-05,0.0,0 STARLINK-5012,1 53918U 22119AJ  23307.12884828  .00009585  00000-0  61926-3 0  9991,2 53918  53.2167 203.7646 0001607  86.5941 273.5235 15.08853452 62362,6917.839,95.437,540.816,538.593,0.0
53918.0,STARLINK-5012,PAYLOAD,2023-11-03 20:34:47,15.08847857,0.0001282,53.2169,200.4929,97.0339,263.0799,0.0006628,0.00010278,0.0,0 STARLINK-5012,1 53918U 22119AJ  23307.85749018  .00010278  00000-0  66280-3 0  9991,2 53918  53.2169 200.4929 0001282  97.0339 263.0799 15.08847857 62056,6917.856,95.437,540.608,538.835,0.0
53918.0,STARLINK-5012,PAYLOAD,2023-11-03 22:10:10,15.08850509,0.0001397,53.2166,200.1955,97.1092,263.0059,0.00060186,9.306e-05,0.0,0 STARLINK-5012,1 53918U 22119AJ  23307.92372965  .00009306  00000-0  60186-3 0  9991,2 53918  53.2166 200.1955 0001397  97.1092 263.0059 15.08850509 62487,6917.848,95.437,540.68,538.747,0.0
53918.0,STARLINK-5012,PAYLOAD,2023-11-04 02:56:19,15.08854832,0.0001439,53.2164,199.3032,90.3932,269.7225,0.00070646,0.00010978,0.0,0 STARLINK-5012,1 53918U 22119AJ  23308.12244817  .00010978  00000-0  70646-3 0  9997,2 53918  53.2164 199.3032 0001439  90.3932 269.7225 15.08854832 62510,6917.835,95.437,540.696,538.705,0.0
53918.0,STARLINK-5012,PAYLOAD,2023-11-04 20:25:34,15.08838516,0.0001507,53.2158,196.0287,88.2246,271.8919,0.00052396,8.06e-05,0.0,0 STARLINK-5012,1 53918U 22119AJ  23308.85109298  .00008060  00000-0  52396-3 0  9991,2 53918  53.2158 196.0287 0001507  88.2246 271.8919 15.08838516 62200,6917.885,95.438,540.792,538.707,0.0
53918.0,STARLINK-5012,PAYLOAD,2023-11-04 22:00:57,15.0883777,0.0001461,53.2162,195.7324,87.6322,272.4837,8.7312e-05,1.102e-05,0.0,0 STARLINK-5012,1 53918U 22119AJ  23308.91733266  .00001102  00000-0  87312-4 0  9993,2 53918  53.2162 195.7324 0001461  87.6322 272.4837 15.08837770 62634,6917.887,95.438,540.763,538.742,0.0
53918.0,STARLINK-5012,PAYLOAD,2023-11-05 09:08:39,15.08855187,0.0001188,53.2157,193.652,72.0337,288.0784,0.00074819,0.00011644,0.0,0 STARLINK-5012,1 53918U 22119AJ  23309.38100866  .00011644  00000-0  74819-3 0  9998,2 53918  53.2157 193.6520 0001188  72.0337 288.0784 15.08855187 62707,6917.834,95.437,540.521,538.877,0.0
53918.0,STARLINK-5012,PAYLOAD,2023-11-05 20:16:20,15.0886445,0.0001129,53.2153,191.5704,68.1669,291.9443,0.00052259,8.044e-05,0.0,0 STARLINK-5012,1 53918U 22119AJ  23309.84468130  .00008044  00000-0  52259-3 0  9994,2 53918  53.2153 191.5704 0001129  68.1669 291.9443 15.08864450 62352,6917.806,95.436,540.452,538.89,0.0
53918.0,STARLINK-5012,PAYLOAD,2023-11-05 21:51:43,15.08883449,0.0001296,53.2155,191.2732,87.1322,272.9819,0.001367,0.00021561,0.0,0 STARLINK-5012,1 53918U 22119AJ  23309.91091673  .00021561  00000-0  13670-2 0  9998,2 53918  53.2155 191.2732 0001296  87.1322 272.9819 15.08883449 62786,6917.748,95.435,540.509,538.716,0.0
53918.0,STARLINK-5012,PAYLOAD,2023-11-06 01:02:28,15.08918997,0.000127,53.2166,190.682,99.0402,261.0733,0.0034892,0.00055803,0.0,0 STARLINK-5012,1 53918U 22119AJ  23310.04339091  .00055803  00000-0  34892-2 0  9998,2 53918  53.2166 190.6820 0001270  99.0402 261.0733 15.08918997 62389,6917.639,95.433,540.382,538.625,0.0
53918.0,STARLINK-5012,PAYLOAD,2023-11-06 08:59:24,15.08887055,0.0003345,53.216,189.1919,72.8081,287.3277,0.0011572,0.00018201,0.0,0 STARLINK-5012,1 53918U 22119AJ  23310.37459438  .00018201  00000-0  11572-2 0  9993,2 53918  53.2160 189.1919 0003345  72.8081 287.3277 15.08887055 62432,6917.737,95.435,541.916,537.288,0.0
53918.0,STARLINK-5012,PAYLOAD,2023-11-06 20:07:07,15.08809772,0.0001275,53.2159,187.1116,67.6697,292.4431,0.00024658,3.635e-05,0.0,0 STARLINK-5012,1 53918U 22119AJ  23310.83828014  .00003635  00000-0  24658-3 0  9999,2 53918  53.2159 187.1116 0001275  67.6697 292.4431 15.08809772 62509,6917.973,95.439,540.72,538.956,0.0
53918.0,STARLINK-5012,PAYLOAD,2023-11-06 21:42:31,15.0878262,0.0001242,53.2151,186.813,66.7408,293.3714,-0.0011231,-0.00018089,0.0,0 STARLINK-5012,1 53918U 22119AJ  23310.90452562 -.00018089  00000-0 -11231-2 0  9991,2 53918  53.2151 186.8130 0001242  66.7408 293.3714 15.08782620 62930,6918.056,95.441,540.78,539.062,0.0
53918.0,STARLINK-5012,PAYLOAD,2023-11-07 00:53:17,15.08790842,0.000104,53.2154,186.2178,86.4065,273.7046,-0.0015817,-0.00025338,0.0,0 STARLINK-5012,1 53918U 22119AJ  23311.03700699 -.00025338  00000-0 -15817-2 0  9992,2 53918  53.2154 186.2178 0001040  86.4065 273.7046 15.08790842 62534,6918.031,95.441,540.615,539.176,0.0
53918.0,STARLINK-5012,PAYLOAD,2023-11-07 08:50:14,15.08789642,0.0001127,53.2157,184.7337,85.8876,274.2245,-0.00017281,-3.033e-05,0.0,0 STARLINK-5012,1 53918U 22119AJ  23311.36822137 -.00003033  00000-0 -17281-3 0  9996,2 53918  53.2157 184.7337 0001127  85.8876 274.2245 15.08789642 62584,6918.034,95.441,540.679,539.12,0.0
53918.0,STARLINK-5012,PAYLOAD,2023-11-08 00:44:07,15.08815644,0.000125,53.2156,181.7608,84.6581,275.4553,0.0016749,0.00026451,0.0,0 STARLINK-5012,1 53918U 22119AJ  23312.03064306  .00026451  00000-0  16749-2 0  9991,2 53918  53.2156 181.7608 0001250  84.6581 275.4553 15.08815644 62686,6917.955,95.439,540.685,538.955,0.0
53918.0,STARLINK-5012,PAYLOAD,2023-11-08 19:48:44,15.08869183,0.0001218,53.2154,178.1935,83.7348,276.3783,0.0018641,0.00029528,0.0,0 STARLINK-5012,1 53918U 22119AJ  23312.82551897  .00029528  00000-0  18641-2 0  9995,2 53918  53.2154 178.1935 0001218  83.7348 276.3783 15.08869183 62808,6917.791,95.436,540.499,538.814,0.0
53918.0,STARLINK-5012,PAYLOAD,2023-11-08 21:24:07,15.08872314,0.0001307,53.2161,177.8944,81.2478,278.8663,0.0017931,0.0002839,0.0,0 STARLINK-5012,1 53918U 22119AJ  23312.89175780  .00028390  00000-0  17931-2 0  9992,2 53918  53.2161 177.8944 0001307  81.2478 278.8663 15.08872314 63230,6917.782,95.436,540.551,538.742,0.0
53918.0,STARLINK-5012,PAYLOAD,2023-11-08 22:59:30,15.08875396,0.0001303,53.216,177.5972,81.079,279.035,0.001744,0.00027604,0.0,0 STARLINK-5012,1 53918U 22119AJ  23312.95799633  .00027604  00000-0  17440-2 0  9990,2 53918  53.2160 177.5972 0001303  81.0790 279.0350 15.08875396 63248,6917.772,95.435,540.539,538.736,0.0
53918.0,STARLINK-5012,PAYLOAD,2023-11-09 19:39:30,15.08872374,0.0001522,53.2166,173.7352,76.07,284.0462,0.00087188,0.00013627,0.0,0 STARLINK-5012,1 53918U 22119AJ  23313.81910518  .00013627  00000-0  87188-3 0  9990,2 53918  53.2166 173.7352 0001522  76.0700 284.0462 15.08872374 62952,6917.781,95.436,540.699,538.594,0.0
53918.0,STARLINK-5012,PAYLOAD,2023-11-09 21:14:53,15.08880849,0.0001295,53.2158,173.4363,80.4566,279.6572,0.001004,0.00015745,0.0,0 STARLINK-5012,1 53918U 22119AJ  23313.88534232  .00015745  00000-0  10040-2 0  9997,2 53918  53.2158 173.4363 0001295  80.4566 279.6572 15.08880849 63384,6917.756,95.435,540.516,538.725,0.0
53918.0,STARLINK-5012,PAYLOAD,2023-11-10 08:22:35,15.08851184,0.0001663,53.2158,171.3539,85.1971,274.9211,0.0015088,0.00023814,0.0,0 STARLINK-5012,1 53918U 22119AJ  23314.34901964  .00023814  00000-0  15088-2 0  9992,2 53918  53.2158 171.3539 0001663  85.1971 274.9211 15.08851184 63037,6917.846,95.437,540.862,538.561,0.0
53918.0,STARLINK-5012,PAYLOAD,2023-11-10 19:30:17,15.08851321,0.0001624,53.2163,169.2702,113.536,246.5803,0.00048731,7.478e-05,0.0,0 STARLINK-5012,1 53918U 22119AJ  23314.81269701  .00007478  00000-0  48731-3 0  9990,2 53918  53.2163 169.2702 0001624 113.5360 246.5803 15.08851321 63109,6917.846,95.437,540.834,538.587,0.0
53918.0,STARLINK-5012,PAYLOAD,2023-11-10 21:05:40,15.08851489,0.0001481,53.2169,168.9728,95.9993,264.1168,0.00051038,7.847e-05,0.0,0 STARLINK-5012,1 53918U 22119AJ  23314.87893805  .00007847  00000-0  51038-3 0  9998,2 53918  53.2169 168.9728 0001481  95.9993 264.1168 15.08851489 63537,6917.845,95.437,540.735,538.686,0.0
53918.0,STARLINK-5012,PAYLOAD,2023-11-11 19:21:04,15.08846853,0.0001737,53.2165,164.8097,114.838,245.2793,0.00052011,8.001e-05,0.0,0 STARLINK-5012,1 53918U 22119AJ  23315.80630014  .00008001  00000-0  52011-3 0  9998,2 53918  53.2165 164.8097 0001737 114.8380 245.2793 15.08846853 63254,6917.859,95.437,540.926,538.523,0.0
53918.0,STARLINK-5012,PAYLOAD,2023-11-11 20:56:27,15.0884324,0.0001383,53.2165,164.5129,93.7057,266.4093,0.00036756,5.567e-05,0.0,0 STARLINK-5012,1 53918U 22119AJ  23315.87254150  .00005567  00000-0  36756-3 0  9990,2 53918  53.2165 164.5129 0001383  93.7057 266.4093 15.08843240 63682,6917.87,95.437,540.692,538.779,0.0
53918.0,STARLINK-5012,PAYLOAD,2023-11-12 06:28:46,15.08843351,0.0001397,53.2162,162.7286,94.5059,265.6092,0.00030073,4.502e-05,0.0,0 STARLINK-5012,1 53918U 22119AJ  23316.26998185  .00004502  00000-0  30073-3 0  9991,2 53918  53.2162 162.7286 0001397  94.5059 265.6092 15.08843351 63323,6917.87,95.437,540.702,538.769,0.0
53918.0,STARLINK-5012,PAYLOAD,2023-11-12 20:47:14,15.08852264,0.0001422,53.2159,160.052,88.6815,271.434,0.00047922,7.35e-05,0.0,0 STARLINK-5012,1 53918U 22119AJ  23316.86613821  .00007350  00000-0  47922-3 0  9993,2 53918  53.2159 160.0520 0001422  88.6815 271.4340 15.08852264 63834,6917.843,95.437,540.692,538.724,0.0
53918.0,STARLINK-5012,PAYLOAD,2023-11-13 06:19:32,15.08859733,0.0001409,53.2158,158.2679,89.0937,271.0216,0.00049291,7.57e-05,0.0,0 STARLINK-5012,1 53918U 22119AJ  23317.26357365  .00007570  00000-0  49291-3 0  9991,2 53918  53.2158 158.2679 0001409  89.0937 271.0216 15.08859733 63894,6917.82,95.436,540.66,538.71,0.0
